#dP2022  5 21  0  0  0.00000000      97 __u+U IGS14 FIT  IAC
## 2210 518400.00000000   900.00000000 59720 0.0000000000000
+  115   C06C07C08C09C10C11C12C13C14C16C19C20C21C22C23C24C25
+        C26C27C28C29C30C32C33C34C35C36C37C38C39C40C41C42C43
+        C44C45C46E01E02E03E04E05E07E08E09E10E11E12E13E14E15
+        E18E19E21E24E25E26E27E30E31E33E34E36G01G02G03G04G05
+        G06G07G08G09G10G12G13G14G15G16G17G19G20G21G22G23G24
+        G25G26G27G28G29G30G31G32J02J03R01R02R03R04R05R07R08
+        R09R11R12R13R14R15R17R18R19R20R21R22R24  0  0  0  0
++         7  7  7  7  7  7  7  7  6  7  6  5  6  6  6  6  6
++         5  5  5  6  5  6  6  6  6  5  6  6  7  6  6  6  6
++         6  6  6  4  4  4  4  4  4  4  4  5  4  5  4  4  4
++         5  4  4  4  4  4  4  4  4  4  4  4  4  3  4  3  3
++         3  3  3  3  3  4  3  3  4  3  4  4  3  3  4  3  3
++         3  4  3  4  3  3  4  3  9  9  7  6  6  6  6  6  6
++         6  6  6  7  6  6  6  6  7  7  6  7  6  0  0  0  0
%c M  cc GPS ccc cccc cccc cccc cccc ccccc ccccc ccccc ccccc
%c cc cc ccc ccc cccc cccc cccc cccc ccccc ccccc ccccc ccccc
%f  1.2500000  1.025000000  0.00000000000  0.000000000000000
%f  0.0000000  0.000000000  0.00000000000  0.000000000000000
%i    0    0    0    0      0      0      0      0         0
%i    0    0    0    0      0      0      0      0         0
/* INFORMATION & ANALYSIS CENTER (IAC)            FINAL DATA
/* S/V CLOCKS ARE ALIGNED TO GNSS TIME                      
/* G:C1WC2W R:C1PC2P E:C1XC5X C:C2IC6I J:C1CC2S             
/* PCV:IGS14_2196 OL/AL:FES2004  NONE     YN ORB:CoN CLK:CoN
*  2022 05 21 11 15  0.00000000
PC06 -17102.016052  36387.313330 -13044.717534     28.090982
PC07  -3004.225780  35173.401046 -22950.694466   -194.772621
PC08 -10182.845541  19464.305429  35978.916669    323.918876
PC09 -11882.998843  35232.115764 -19972.620393   -807.942328
PC10   4274.021544  37941.988927 -17101.939758    131.145405
PC11   2926.368816  18685.824422  20565.335562    365.620825
PC12 -11933.874899  24239.818516   6987.952268   -612.690758
PC13  -1445.217217  22298.284576  35880.737170    -26.579601
PC14  12064.914820  25123.493172   -331.924118    480.043688
PC16 -19675.959863  36091.588323  -9800.088313    133.376927
PC19 -16781.040479 -20138.448191   9637.512077    867.782736
PC20  -6769.706679 -26103.190118  -7230.982866   -924.003048
PC21  -8065.888952  16665.469541  20892.580832   -331.719259
PC22 -17505.063030  -2333.953672  21621.463239   -968.799326
PC23  27736.510318    342.584174   3056.773825   -930.395333
PC24   1439.975395  16397.366802 -22543.206033   -967.309513
PC25  21942.253420  11009.669778 -13293.597306   -733.498563
PC26 -17017.595647  12128.809680 -18488.499016    734.775041
PC27  17261.960426 -21844.653367   1737.728902    726.587360
PC28  20472.045652  -8043.933808  17172.737250     69.288777
PC29 -11916.098658 -10733.434109 -22848.785842    557.606601
PC30   3769.073492 -23637.654146 -14337.702169    498.804800
PC32   7928.976617 -16732.845711 -20862.227189   -963.909703
PC33  16848.166814  20089.793564  -9512.975978   -966.143978
PC34  -2973.575171  23314.687939  15046.986461   -398.680051
PC35 -20089.617111   7729.550779 -17792.665629    284.028510
PC36 -21263.972937 -11782.085788  13726.502791   -964.716240
PC37  18389.079375 -11156.725608  17805.126988   -910.121131
PC38 -18492.007357  19691.571570  32363.781960    233.682957
PC39 -21577.568061  36158.771316  -3560.405393     34.981544
PC40  -6605.573308  31429.895252 -27250.684110    270.859281
PC41  17638.326943   2772.080281 -21389.428737   -966.345878
PC42   5947.616676  25980.487302   8276.458181   -970.099117
PC43  11447.113178  11514.620325  22684.312671   -922.837223
PC44 -16628.716209  22348.176364  -1979.784472    666.644717
PC45 -27694.822646   -157.142078  -3338.755306    762.702794
PC46  -3189.309291 -16294.385978  22428.405213   -336.243109
PE01 -26023.521104  -9496.212135 -10423.975329   -480.743620
PE02  26019.211141   9374.256855  10566.870766    300.563256
PE03  16888.822573   2720.490870 -24151.014190   -560.516314
PE04 -14295.078562  18574.916819  18089.185294  -1032.668477
PE05   9600.349783  22877.877360 -16131.768520   -179.597154
PE07   3139.359364 -29418.124647  -1116.778591   -670.658403
PE08  14009.500011 -18895.507537 -17968.638436   -532.837271
PE09  -2985.440502  29422.331878   1049.453936   -525.804939
PE10 -18441.818331  18727.006872  13603.948774   -514.429614
PE11  -8567.502016  19158.334145  20867.311287   3603.782985
PE12 -24941.744372  15289.755086   4579.855303   4602.925766
PE13   9243.587365 -19197.849582 -20544.323891    428.813665
PE14  -2129.284546 -29567.317920 -11498.038040  -1831.236596
PE15  24957.849173 -15270.078974  -4451.319415    744.332053
PE18  -3503.849716  23919.447464   3679.387277  -1423.347301
PE19 -16362.997136  -5604.276099  24034.134019  -5031.853789
PE21 -20510.811040 -20108.564971   7145.405067   -735.461686
PE24   1541.749846  19561.173815 -22182.157867   -626.889335
PE25  20337.875596  20196.316373  -7396.456469   -574.718106
PE26 -12750.917666 -11419.730670 -24151.753404  -1169.913768
PE27  -2848.395077 -19924.079455  21703.364415   -303.770366
PE30  17163.775146  -7189.211397  23012.537728   -528.012469
PE31 -16317.946294   8019.895418 -23351.116273   -496.975959
PE33 -25881.442803   2360.293964 -14183.333247   -456.422890
PE34  25945.563755  -2562.433452  14006.436327   -518.148371
PE36  11755.825970  11833.081599  24447.802517   -376.748275
PG01   -381.562788 -15167.444740 -22058.849148    358.254492
PG02 -19572.904944  15658.777844   9656.272884   -653.193819
PG03  -9115.469037 -20722.626525 -14092.115780   -251.966385
PG04    109.845351 -25251.747160   8098.498066   -165.167091
PG05  -5497.108829  14656.556133  21273.260789    -82.633205
PG06 -25635.830361   5297.597776  -4686.811942    311.819613
PG07 -17125.654317  -8580.711202  19001.972229    322.185809
PG08   5272.396056 -25812.558183   1019.112779    -68.898430
PG09  -8298.585621 -19204.551895  16279.665237   -335.043917
PG10  22309.649052   9495.901537 -11031.795976   -422.928304
PG12   3847.705220  20385.616873 -16917.139194   -218.815337
PG13 -13185.780890  21462.440530   7988.974782    315.492285
PG14 -22036.805829 -10862.810150 -10208.050772   -109.196985
PG15  -1690.516339  26333.937301   -137.584168    -59.540649
PG16  11242.750711  -9797.672342  21710.334286   -502.710629
PG17 -14483.255145  -2351.533872 -21709.775746    615.291211
PG19 -16221.457759   5658.216791 -20457.305022    160.181014
PG20 -15103.292781   7900.122417  20317.361607    514.471028
PG21  10073.909589 -17071.637727 -16695.879131    161.164775
PG22  16100.708338  -9141.812594 -18559.565774    262.678018
PG23  20905.291186  16449.175693   -963.385677    -23.271867
PG24  -3113.632477  17424.064601 -19988.054029    237.076764
PG25  16667.672647  20049.663602  -6062.705371    327.455399
PG26  19410.114238  -1672.870553  18099.556293    207.100717
PG27  12392.437250 -19681.852914  12237.607500    206.159802
PG28 -19642.842123  -3935.171717 -16809.187828    353.983699
PG29   6020.615555  19784.168409  16575.685263   -515.909333
PG30 -23629.072907  -1938.321909  12311.193263   -528.698585
PG31  25940.862585  -6447.508604  -2272.483796   -178.516003
PG32  15448.804874   -537.356379 -21433.804905   -132.135272
PJ02 -24374.342431  17046.662182 -25296.423157     -0.208681
PJ03 -27389.826493  32102.965353   2696.347999     -2.299475
PR01 -12461.040928 -15000.401124  16460.334555      8.949359
PR02  -9838.727760   5278.536120  22986.499303    519.014047
PR03  -1863.664914  20798.813210  14736.950965     57.030088
PR04   6930.608402  24502.248759  -1543.075285    142.565946
PR05  11894.703521  14831.734176 -17000.655710     93.244007
PR07   1446.306314 -21190.642076 -14048.088225     35.375077
PR08  -7150.819988 -24408.632258   1836.327159    -65.239825
PR09  21800.006854  -1126.377511  13149.344693     56.214999
PR11 -10716.046761 -12366.637255  19583.327904     38.454943
PR12 -23660.956123  -8524.750494   4236.684671     18.553173
PR13 -22459.876529    148.641572 -12107.043483    -22.593344
PR14  -7291.159629   9355.465915 -22572.865504     25.612183
PR15  11384.158113  12574.944877 -19029.864333     95.977100
PR17 -14885.632034  19250.782428   7591.828682    527.955017
PR18  -2467.218208  15059.547275  20464.719308    117.590509
PR19  10477.622766   4196.217817  22867.911410   -189.779982
PR20  19985.853614 -11667.463645  10678.629071    -70.986607
PR21  14148.020252 -19223.466676  -9035.918196   -303.003502
PR22   1731.437939 -14468.152278 -20927.575954   -184.522264
PR24 -19897.565544  12481.599160  -9926.428266     94.789789
EOF
